{"type": "FeatureCollection", "features": [ {"type": "Feature", "properties": {"norad_id": 39778, "name": "IRIDIUM 33 DEB", "group": "iridium-33-debris", "lat": -41.2637276048173, "lon": -134.30950910978981, "alt_km": 723.9622351519802, "timestamp": "2025-12-14T09:36:23.424038+00:00", "meta": {"OBJECT_NAME": "IRIDIUM 33 DEB", "OBJECT_ID": "1997-051AAK", "EPOCH": "2025-12-13T14:25:38.136576", "MEAN_MOTION": 14.54273042, "ECCENTRICITY": 0.00079139, "INCLINATION": 86.3783, "RA_OF_ASC_NODE": 42.8516, "ARG_OF_PERICENTER": 39.4085, "MEAN_ANOMALY": 320.7696, "EPHEMERIS_TYPE": 0, "CLASSIFICATION_TYPE": "U", "NORAD_CAT_ID": 39778, "ELEMENT_SET_NO": 999, "REV_AT_EPOCH": 60705, "BSTAR": 0.0010983749, "MEAN_MOTION_DOT": 4.677e-05, "MEAN_MOTION_DDOT": 0}, "tle": {"line1": "1 39778U 97051AAK 25347.60113584  .00004677  00000+0  10984-2 0  9992", "line2": "2 39778  86.3783  42.8516 0007913  39.4085 320.7696 14.54273042607059"}}, "geometry": {"type": "Point", "coordinates": [-134.30950910978981, -41.2637276048173]}}, {"type": "Feature", "properties": {"norad_id": 39781, "name": "IRIDIUM 33 DEB", "group": "iridium-33-debris", "lat": 44.92800451877378, "lon": 73.66295814749876, "alt_km": 905.1817962022769, "timestamp": "2025-12-14T09:36:23.424048+00:00", "meta": {"OBJECT_NAME": "IRIDIUM 33 DEB", "OBJECT_ID": "1997-051AAN", "EPOCH": "2025-12-12T01:28:05.155392", "MEAN_MOTION": 14.2060455, "ECCENTRICITY": 0.01772895, "INCLINATION": 86.3691, "RA_OF_ASC_NODE": 258.2585, "ARG_OF_PERICENTER": 275.4265, "MEAN_ANOMALY": 145.4796, "EPHEMERIS_TYPE": 0, "CLASSIFICATION_TYPE": "U", "NORAD_CAT_ID": 39781, "ELEMENT_SET_NO": 999, "REV_AT_EPOCH": 8097, "BSTAR": 0.0073586238, "MEAN_MOTION_DOT": 0.00018593, "MEAN_MOTION_DDOT": 0}, "tle": {"line1": "1 39781U 97051AAN 25346.06117078  .00018593  00000+0  73586-2 0  9996", "line2": "2 39781  86.3691 258.2585 0177289 275.4265 145.4796 14.20604550 80970"}}, "geometry": {"type": "Point", "coordinates": [73.66295814749876, 44.92800451877378]}}, {"type": "Feature", "properties": {"norad_id": 39783, "name": "IRIDIUM 33 DEB", "group": "iridium-33-debris", "lat": 34.12333678926455, "lon": -102.96052260892752, "alt_km": 458.2865468576356, "timestamp": "2025-12-14T09:36:23.424059+00:00", "meta": {"OBJECT_NAME": "IRIDIUM 33 DEB", "OBJECT_ID": "1997-051AAQ", "EPOCH": "2025-11-16T15:05:40.850592", "MEAN_MOTION": 15.19327111, "ECCENTRICITY": 0.00057535, "INCLINATION": 86.1306, "RA_OF_ASC_NODE": 268.8004, "ARG_OF_PERICENTER": 179.9151, "MEAN_ANOMALY": 1.8316, "EPHEMERIS_TYPE": 0, "CLASSIFICATION_TYPE": "U", "NORAD_CAT_ID": 39783, "ELEMENT_SET_NO": 999, "REV_AT_EPOCH": 60401, "BSTAR": 0.010398125, "MEAN_MOTION_DOT": 0.00226179, "MEAN_MOTION_DDOT": 0}, "tle": {"line1": "1 39783U 97051AAQ 25320.62894503  .00226179  00000+0  10398-1 0  9999", "line2": "2 39783  86.1306 268.8004 0005753 179.9151   1.8316 15.19327111604018"}}, "geometry": {"type": "Point", "coordinates": [-102.96052260892752, 34.12333678926455]}}, {"type": "Feature", "properties": {"norad_id": 40996, "name": "IRIDIUM 33 DEB", "group": "iridium-33-debris", "lat": 37.080484925868504, "lon": 3.3978924312389394, "alt_km": 567.6021093107111, "timestamp": "2025-12-14T09:36:23.424069+00:00", "meta": {"OBJECT_NAME": "IRIDIUM 33 DEB", "OBJECT_ID": "1997-051ABJ", "EPOCH": "2025-12-12T07:45:11.152800", "MEAN_MOTION": 14.96217536, "ECCENTRICITY": 0.00119593, "INCLINATION": 86.3523, "RA_OF_ASC_NODE": 1.6046, "ARG_OF_PERICENTER": 64.2736, "MEAN_ANOMALY": 311.0223, "EPHEMERIS_TYPE": 0, "CLASSIFICATION_TYPE": "U", "NORAD_CAT_ID": 40996, "ELEMENT_SET_NO": 999, "REV_AT_EPOCH": 62482, "BSTAR": 0.0043106688, "MEAN_MOTION_DOT": 0.00048971, "MEAN_MOTION_DDOT": 0}, "tle": {"line1": "1 40996U 97051ABJ 25346.32304575  .00048971  00000+0  43107-2 0  9994", "line2": "2 40996  86.3523   1.6046 0011959  64.2736 311.0223 14.96217536624825"}}, "geometry": {"type": "Point", "coordinates": [3.3978924312389394, 37.080484925868504]}}, {"type": "Feature", "properties": {"norad_id": 40998, "name": "IRIDIUM 33 DEB", "group": "iridium-33-debris", "lat": -6.41268694101709, "lon": -126.64617404551778, "alt_km": 747.4872793314717, "timestamp": "2025-12-14T09:36:23.424079+00:00", "meta": {"OBJECT_NAME": "IRIDIUM 33 DEB", "OBJECT_ID": "1997-051ABL", "EPOCH": "2025-12-13T11:11:31.069248", "MEAN_MOTION": 14.45102839, "ECCENTRICITY": 0.00094531, "INCLINATION": 86.3828, "RA_OF_ASC_NODE": 53.3453, "ARG_OF_PERICENTER": 82.4935, "MEAN_ANOMALY": 288.1024, "EPHEMERIS_TYPE": 0, "CLASSIFICATION_TYPE": "U", "NORAD_CAT_ID": 40998, "ELEMENT_SET_NO": 999, "REV_AT_EPOCH": 6692, "BSTAR": 0.0007848107, "MEAN_MOTION_DOT": 2.764e-05, "MEAN_MOTION_DDOT": 0}, "tle": {"line1": "1 40998U 97051ABL 25347.46633182  .00002764  00000+0  78481-3 0  9995", "line2": "2 40998  86.3828  53.3453 0009453  82.4935 288.1024 14.45102839 66927"}}, "geometry": {"type": "Point", "coordinates": [-126.64617404551778, -6.41268694101709]}}, {"type": "Feature", "properties": {"norad_id": 46435, "name": "IRIDIUM 33 DEB", "group": "iridium-33-debris", "lat": -20.861062523822508, "lon": -168.18442566058218, "alt_km": 730.8691177417131, "timestamp": "2025-12-14T09:36:23.424090+00:00", "meta": {"OBJECT_NAME": "IRIDIUM 33 DEB", "OBJECT_ID": "1997-051ABN", "EPOCH": "2025-12-12T20:52:33.908160", "MEAN_MOTION": 14.32319865, "ECCENTRICITY": 0.02085953, "INCLINATION": 86.2838, "RA_OF_ASC_NODE": 193.8931, "ARG_OF_PERICENTER": 275.9535, "MEAN_ANOMALY": 94.2215, "EPHEMERIS_TYPE": 0, "CLASSIFICATION_TYPE": "U", "NORAD_CAT_ID": 46435, "ELEMENT_SET_NO": 999, "REV_AT_EPOCH": 7918, "BSTAR": 0.012063551, "MEAN_MOTION_DOT": 0.00041649, "MEAN_MOTION_DDOT": 0}, "tle": {"line1": "1 46435U 97051ABN 25346.86983690  .00041649  00000+0  12064-1 0  9990", "line2": "2 46435  86.2838 193.8931 0208595 275.9535  94.2215 14.32319865 79188"}}, "geometry": {"type": "Point", "coordinates": [-168.18442566058218, -20.861062523822508]}}, {"type": "Feature", "properties": {"norad_id": 46734, "name": "IRIDIUM 33 DEB", "group": "iridium-33-debris", "lat": -45.50472427485388, "lon": -174.05174858780492, "alt_km": 765.8683900247652, "timestamp": "2025-12-14T09:36:23.424100+00:00", "meta": {"OBJECT_NAME": "IRIDIUM 33 DEB", "OBJECT_ID": "1997-051ABR", "EPOCH": "2025-12-13T07:39:56.344032", "MEAN_MOTION": 14.41895054, "ECCENTRICITY": 0.00384162, "INCLINATION": 86.2642, "RA_OF_ASC_NODE": 2.6096, "ARG_OF_PERICENTER": 333.7595, "MEAN_ANOMALY": 45.1508, "EPHEMERIS_TYPE": 0, "CLASSIFICATION_TYPE": "U", "NORAD_CAT_ID": 46734, "ELEMENT_SET_NO": 999, "REV_AT_EPOCH": 63019, "BSTAR": 0.001605315, "MEAN_MOTION_DOT": 5.319e-05, "MEAN_MOTION_DDOT": 0}, "tle": {"line1": "1 46734U 97051ABR 25347.31940213  .00005319  00000+0  16053-2 0  9994", "line2": "2 46734  86.2642   2.6096 0038416 333.7595  45.1508 14.41895054630197"}}, "geometry": {"type": "Point", "coordinates": [-174.05174858780492, -45.50472427485388]}}, {"type": "Feature", "properties": {"norad_id": 46965, "name": "IRIDIUM 33 DEB", "group": "iridium-33-debris", "lat": 66.29504891563835, "lon": 151.5698203610779, "alt_km": 696.3229923756571, "timestamp": "2025-12-14T09:36:23.424110+00:00", "meta": {"OBJECT_NAME": "IRIDIUM 33 DEB", "OBJECT_ID": "1997-051ABX", "EPOCH": "2025-12-13T10:45:20.165184", "MEAN_MOTION": 14.60307321, "ECCENTRICITY": 0.00180716, "INCLINATION": 86.336, "RA_OF_ASC_NODE": 340.3836, "ARG_OF_PERICENTER": 330.9129, "MEAN_ANOMALY": 180.178, "EPHEMERIS_TYPE": 0, "CLASSIFICATION_TYPE": "U", "NORAD_CAT_ID": 46965, "ELEMENT_SET_NO": 999, "REV_AT_EPOCH": 62278, "BSTAR": 0.0013493066, "MEAN_MOTION_DOT": 6.553e-05, "MEAN_MOTION_DDOT": 0}, "tle": {"line1": "1 46965U 97051ABX 25347.44815006  .00006553  00000+0  13493-2 0  9991", "line2": "2 46965  86.3360 340.3836 0018071 330.9129 180.1780 14.60307321622786"}}, "geometry": {"type": "Point", "coordinates": [151.5698203610779, 66.29504891563835]}}, {"type": "Feature", "properties": {"norad_id": 46971, "name": "IRIDIUM 33 DEB", "group": "iridium-33-debris", "lat": 58.46072067825841, "lon": -21.67766014276733, "alt_km": 567.623401492483, "timestamp": "2025-12-14T09:36:23.424120+00:00", "meta": {"OBJECT_NAME": "IRIDIUM 33 DEB", "OBJECT_ID": "1997-051ACD", "EPOCH": "2025-12-09T17:53:50.411040", "MEAN_MOTION": 14.9771662, "ECCENTRICITY": 0.00041979, "INCLINATION": 86.3387, "RA_OF_ASC_NODE": 334.5212, "ARG_OF_PERICENTER": 335.9126, "MEAN_ANOMALY": 199.6728, "EPHEMERIS_TYPE": 0, "CLASSIFICATION_TYPE": "U", "NORAD_CAT_ID": 46971, "ELEMENT_SET_NO": 999, "REV_AT_EPOCH": 64185, "BSTAR": 0.0038941985, "MEAN_MOTION_DOT": 0.00045901, "MEAN_MOTION_DDOT": 0}, "tle": {"line1": "1 46971U 97051ACD 25343.74572235  .00045901  00000+0  38942-2 0  9997", "line2": "2 46971  86.3387 334.5212 0004197 335.9126 199.6728 14.97716620641853"}}, "geometry": {"type": "Point", "coordinates": [-21.67766014276733, 58.46072067825841]}}, {"type": "Feature", "properties": {"norad_id": 46974, "name": "IRIDIUM 33 DEB", "group": "iridium-33-debris", "lat": 85.34861178759131, "lon": -128.17136305335816, "alt_km": 734.155196471007, "timestamp": "2025-12-14T09:36:23.424131+00:00", "meta": {"OBJECT_NAME": "IRIDIUM 33 DEB", "OBJECT_ID": "1997-051ACG", "EPOCH": "2025-12-13T01:34:59.316384", "MEAN_MOTION": 14.44392499, "ECCENTRICITY": 0.00956741, "INCLINATION": 86.2983, "RA_OF_ASC_NODE": 105.1329, "ARG_OF_PERICENTER": 185.9471, "MEAN_ANOMALY": 174.0604, "EPHEMERIS_TYPE": 0, "CLASSIFICATION_TYPE": "U", "NORAD_CAT_ID": 46974, "ELEMENT_SET_NO": 999, "REV_AT_EPOCH": 57513, "BSTAR": 0.0074669983, "MEAN_MOTION_DOT": 0.00027304, "MEAN_MOTION_DDOT": 0}, "tle": {"line1": "1 46974U 97051ACG 25347.06596431  .00027304  00000+0  74670-2 0  9998", "line2": "2 46974  86.2983 105.1329 0095674 185.9471 174.0604 14.44392499575137"}}, "geometry": {"type": "Point", "coordinates": [-128.17136305335816, 85.34861178759131]}}]}